HAWK-A                  
1 43765U 18099H   26189.93901917  .00004252  00000+0  17107-3 0  9998
2 43765  97.3904 241.8930 0034071 206.1617 153.7901 15.24910778416410
HAWK-B                  
1 43794U 18099AN  26190.11801696  .00003624  00000+0  15492-3 0  9992
2 43794  97.3952 241.4385 0030830 223.9144 135.9642 15.23069318416379
HAWK-C                  
1 43799U 18099AT  26190.58617811  .00005767  00000+0  20631-3 0  9993
2 43799  97.3883 243.5549 0039744 203.7695 156.1711 15.28432689417331
HAWK-2C                 
1 47502U 21006CT  26190.71061757  .00004689  00000+0  14053-3 0  9991
2 47502  97.2272 234.5729 0008534 116.5686 243.6433 15.34943582302952
HAWK-2A                 
1 47505U 21006CW  26190.71289522  .00004803  00000+0  14384-3 0  9991
2 47505  97.2314 235.2660 0008025 119.7242 240.4801 15.34958612302956
HAWK-2B                 
1 47508U 21006CZ  26190.05502054  .00004991  00000+0  14879-3 0  9996
2 47508  97.2184 232.9178 0008602 120.1450 240.0648 15.35076738302855
HAWK-3B                 
1 48931U 21059BE  26189.98797792  .00035169  00000+0  27624-3 0  9993
2 48931  97.6654  28.7876 0003957 222.4418 137.6539 15.71448162281272
HAWK-3C                 
1 48948U 21059BX  26189.54192624  .00038991  00000+0  30651-3 0  9996
2 48948  97.6771  34.0207 0004226 223.2923 136.8007 15.71407356281202
HAWK-3A                 
1 48957U 21059CG  26189.54181301  .00041263  00000+0  32419-3 0  9996
2 48957  97.6713  31.2077 0004069 227.6759 132.4159 15.71409877281202
HAWK-5C                 
1 52754U 22057Y   26190.74249726  .00014173  00000+0  23553-3 0  9994
2 52754  97.6610 351.8809 0003311   7.9720 352.1583 15.52195639229849
HAWK-5B                 
1 52756U 22057AA  26190.74230529  .00013532  00000+0  22497-3 0  9991
2 52756  97.6627 350.2329 0003978 354.7757   5.3452 15.52193096229848
HAWK-5A                 
1 52757U 22057AB  26190.80657756  .00013886  00000+0  23078-3 0  9992
2 52757  97.6619 351.1320 0003885 359.6298   0.4951 15.52195712229850
HAWK-6B                 
1 55324U 23011A   26190.54312988  .00002893  00000+0  12815-3 0  9995
2 55324  40.4968 221.6591 0003304 209.9422 150.1199 15.23122243191255
HAWK-6C                 
1 55326U 23011C   26190.54250683  .00003186  00000+0  14027-3 0  9993
2 55326  40.4958 218.4978 0003774 199.1925 160.8742 15.23123597191264
HAWK-6A                 
1 55327U 23011D   26190.54254032  .00002857  00000+0  12666-3 0  9997
2 55327  40.4966 220.1247 0003302 196.9999 163.0700 15.23123028191264
HAWK-7A                 
1 56191U 23054P   26190.71124112  .00003861  00000+0  14579-3 0  9999
2 56191  97.2676  77.4761 0002032 358.9659   1.1576 15.27595507180460
